STARLINK-31124          
1 58674U 23211H   25096.69386302  .00058156  00000+0  22188-2 0  9995
2 58674  43.0018 187.7389 0001301 258.6734 101.3971 15.25861361 70930
STARLINK-31126          
1 58675U 23211J   25096.63972528 -.00005954  00000+0 -21799-3 0  9999
2 58675  43.0041 188.2021 0001229 267.9914  92.0796 15.25903950 70929
STARLINK-31066          
1 58676U 23211K   25097.54734156  .00002063  00000+0  16774-3 0  9997
2 58676  43.0029 261.1885 0001860 282.8545  77.2089 15.02537758 71422
STARLINK-31058          
1 58677U 23211L   25097.21527868  .00004349  00000+0  17601-3 0  9991
2 58677  43.0001 184.7706 0000765 257.2442 102.8324 15.25903938 72194
STARLINK-31125          
1 58678U 23211M   25097.24455042  .00015015  00000+0  58288-3 0  9997
2 58678  42.9971 184.1523 0001153 291.4691  68.6037 15.25898164 72192
STARLINK-31110          
1 58679U 23211N   25097.53575591  .00001326  00000+0  60457-4 0  9994
2 58679  43.0005 182.8750 0000943 154.5063 205.5834 15.25940980 72335
STARLINK-31112          
1 58680U 23211P   25097.53125411  .00002340  00000+0  99278-4 0  9998
2 58680  43.0036 182.8490 0000787 218.5332 141.5463 15.25900859 72246
STARLINK-31147          
1 58681U 23211Q   25097.53349713 -.00000639  00000+0 -14610-4 0  9990
2 58681  42.9993 182.8581 0000327 217.8450 142.2378 15.25927703 72331
STARLINK-31144          
1 58682U 23211R   25097.24228352  .00001827  00000+0  79668-4 0  9996
2 58682  43.0001 184.1345 0000626 214.1424 145.9387 15.25897449 72300
STARLINK-31095          
1 58683U 23211S   25096.93761940 -.00003403  00000+0 -12039-3 0  9999
2 58683  42.9978 186.1271 0000919  84.0213 276.0743 15.25887708 72249
STARLINK-31107          
1 58684U 23211T   25097.51767855 -.00004190  00000+0 -15036-3 0  9990
2 58684  43.0018 182.7513 0000923 268.2889  91.7856 15.25922647 72236
STARLINK-31121          
1 58685U 23211U   25096.65993962 -.00000180  00000+0  29458-5 0  9994
2 58685  42.9989 187.5001 0000490 239.7097 120.3706 15.25901364 70931
STARLINK-31137          
1 58686U 23211V   25097.50183318  .00002622  00000+0  10996-3 0  9993
2 58686  43.0002 182.6414 0001260 273.8290  86.2417 15.25936866 72334
STARLINK-31139          
1 58688U 23211X   25097.25357649  .00002734  00000+0  11434-3 0  9999
2 58688  43.0008 184.2114 0000354 195.0026 165.0814 15.25903075 72290
STARLINK-31106          
1 58689U 23211Y   25097.52221362 -.00005658  00000+0 -20673-3 0  9997
2 58689  43.0032 182.7801 0001953 285.0747  74.9888 15.25892403 72235
STARLINK-11072 [DTC]    
1 58705U 24002A   25097.30071916  .00007230  00000+0  64474-4 0  9993
2 58705  53.1574 132.2984 0001798 125.8790 234.2395 15.69714421 73556
STARLINK-11075 [DTC]    
1 58706U 24002B   25097.30740591  .00003626  00000+0  29079-4 0  9993
2 58706  53.1581 133.0757 0001588  26.0398 334.0701 15.74164922 73545
STARLINK-11077 [DTC]    
1 58707U 24002C   25097.37416933  .00001749  00000+0  19281-4 0  9999
2 58707  53.1583 132.0326 0001346 111.1393 248.9769 15.69730524 73562
STARLINK-11079 [DTC]    
1 58708U 24002D   25097.29580384  .00001207  00000+0  14832-4 0  9999
2 58708  53.1587 132.2670 0001468  80.9185 279.1999 15.69702560 73557
STARLINK-11076 [DTC]    
1 58709U 24002E   25097.29089590  .00001198  00000+0  14747-4 0  9997
2 58709  53.1573 132.2395 0001321  86.0774 274.0395 15.69709803 73445
STARLINK-11078 [DTC]    
1 58710U 24002F   25097.47701427 -.00002329  00000+0 -14384-4 0  9995
2 58710  53.1586 131.2587 0001388  89.8585 270.2592 15.69688300 73587
STARLINK-31031          
1 58711U 24002G   25096.92785528  .00001325  00000+0  11193-3 0  9996
2 58711  53.1611 341.7042 0001691  93.2850 266.8333 15.04921317 70636
STARLINK-31029          
1 58712U 24002H   25096.97077919 -.00002218  00000+0 -13562-3 0  9996
2 58712  53.1611 341.9619 0001384  80.6761 279.4386 15.04926972 70639
STARLINK-30973          
1 58713U 24002J   25096.96755827 -.00002635  00000+0 -16476-3 0  9997
2 58713  53.1600 341.9453 0001790  81.2660 278.8532 15.04920730 70632
STARLINK-31100          
1 58714U 24002K   25096.89793012 -.00001425  00000+0 -80189-4 0  9997
2 58714  53.1624 342.2210 0001434 103.9661 256.1489 15.04920789 70636
STARLINK-31102          
1 58715U 24002L   25096.96115024  .00008498  00000+0  61253-3 0  9992
2 58715  53.1591 341.9038 0001096 102.2460 257.8652 15.04909905 70634
STARLINK-31098          
1 58716U 24002M   25096.95792769  .00017754  00000+0  12567-2 0  9997
2 58716  53.1609 341.8844 0001236  81.7765 278.3365 15.04918030 70632
STARLINK-31093          
1 58717U 24002N   25096.93108754  .00005155  00000+0  37935-3 0  9990
2 58717  53.1618 341.7363 0001523  89.1512 270.9653 15.04914062 70638
STARLINK-31097          
1 58718U 24002P   25096.95468092  .00000440  00000+0  50129-4 0  9990
2 58718  53.1627 341.8598 0001588  97.4093 262.7077 15.04926144 70630
STARLINK-31051          
1 58719U 24002Q   25097.08429027 -.00001936  00000+0 -11587-3 0  9998
2 58719  53.1622 341.2474 0001746  92.1277 267.9912 15.04931426 70505
STARLINK-31027          
1 58720U 24002R   25097.08104858 -.00004654  00000+0 -30589-3 0  9995
2 58720  53.1605 341.2259 0001508  92.2594 267.8569 15.04935549 70505
STARLINK-30972          
1 58721U 24002S   25096.94502383 -.00001019  00000+0 -51853-4 0  9995
2 58721  53.1615 341.7990 0001640 100.7561 259.3613 15.04920153 70602
STARLINK-31040          
1 58722U 24002T   25096.94072859 -.00005212  00000+0 -34521-3 0  9997
2 58722  53.1615 341.7758 0001498 101.3848 258.7310 15.04898712 70603
STARLINK-31033          
1 58723U 24002U   25096.92465884  .00014487  00000+0  10293-2 0  9991
2 58723  53.1612 341.6742 0001962 100.4107 259.7104 15.04924562 70635
STARLINK-30893          
1 58724U 24002V   25096.93751145 -.00004371  00000+0 -28631-3 0  9990
2 58724  53.1603 341.7684 0001105  84.5060 275.6056 15.04908616 70636
STARLINK-30856          
1 58725U 24002W   25097.00071394 -.00002131  00000+0 -12955-3 0  9995
2 58725  53.1624 341.4470 0001735  89.8976 270.2212 15.04926274 70492
STARLINK-31115          
1 58729U 24005B   25096.69662380  .00000229  00000+0  32028-4 0  9995
2 58729  43.0012 252.3560 0001152 275.1075  84.9636 15.02530689 69721
STARLINK-31150          
1 58730U 24005C   25097.02556890  .00050517  00000+0  10879-2 0  9996
2 58730  43.0019  90.6377 0002100 175.6532 184.4344 15.43842249 71644
STARLINK-31204          
1 58731U 24005D   25096.79166440  .00006570  00000+0  24815-3 0  9994
2 58731  43.0036 242.0040 0002868 273.5641  86.4883 15.27567754 69861
STARLINK-31180          
1 58732U 24005E   25097.12212640  .00004016  00000+0  31214-3 0  9991
2 58732  43.0021 250.3979 0001571 270.6761  89.3901 15.02543687 69809
STARLINK-31164          
1 58733U 24005F   25097.49114319 -.00005587  00000+0 -39875-3 0  9993
2 58733  43.0019 248.8570 0001632 262.0741  97.9916 15.02544801 69852
STARLINK-31152          
1 58734U 24005G   25097.15544660 -.00004091  00000+0 -28804-3 0  9992
2 58734  43.0016 250.6398 0001539 272.0938  87.9728 15.02521959 69796
STARLINK-31157          
1 58735U 24005H   25097.15208931  .00000774  00000+0  72342-4 0  9990
2 58735  43.0019 250.6111 0001244 260.0982  99.9719 15.02543761 69790
STARLINK-31076          
1 58736U 24005J   25096.88285171  .00000296  00000+0  36957-4 0  9992
2 58736  43.0027 252.0317 0000971 277.5082  82.5650 15.02538103 69790
STARLINK-31101          
1 58737U 24005K   25097.14210288  .00001050  00000+0  92807-4 0  9995
2 58737  43.0037 250.5333 0001419 256.4980 103.5704 15.02536633 69806
STARLINK-31108          
1 58738U 24005L   25096.81304453  .00002308  00000+0  18587-3 0  9996
2 58738  43.0021 252.3665 0001417 261.8543  98.2139 15.02533022 69734
STARLINK-31042          
1 58739U 24005M   25096.80639733  .00001502  00000+0  12624-3 0  9999
2 58739  43.0021 252.3161 0001031 276.2656  83.8069 15.02535876 69745
STARLINK-31159          
1 58740U 24005N   25097.13543687 -.00006064  00000+0 -43384-3 0  9997
2 58740  43.0023 250.4848 0001169 289.7581  70.3136 15.02565465 69897
STARLINK-31148          
1 58741U 24005P   25097.13212053 -.00000325  00000+0 -90305-5 0  9999
2 58741  43.0003 250.4779 0000746 277.6097  82.4661 15.02532016 69799
STARLINK-31151          
1 58742U 24005Q   25097.12878698  .00000352  00000+0  41153-4 0  9996
2 58742  43.0042 250.4509 0001388 264.5182  95.5502 15.02537912 69897
STARLINK-31156          
1 58743U 24005R   25096.85954582 -.00003096  00000+0 -21424-3 0  9991
2 58743  43.0021 251.8720 0001225 272.2010  87.8692 15.02535314 69800
STARLINK-31167          
1 58744U 24005S   25097.49923181  .00016155  00000+0  62618-3 0  9992
2 58744  43.0003 170.6842 0000804 274.4139  85.6620 15.25903778 70810
STARLINK-31176          
1 58745U 24005T   25096.71992617 -.00000372  00000+0 -12472-4 0  9997
2 58745  42.9995 252.5405 0000793 274.1644  85.9107 15.02544113 69774
STARLINK-31181          
1 58746U 24005U   25097.22141553  .00001121  00000+0  50326-4 0  9991
2 58746  43.0030 167.7133 0003191 285.6219  74.4281 15.27549810 70822
STARLINK-31183          
1 58747U 24005V   25096.84621711 -.00006674  00000+0 -47924-3 0  9997
2 58747  43.0037 251.7710 0001248 271.8658  88.2041 15.02551163 69855
STARLINK-31165          
1 58748U 24005W   25096.84955854 -.00000524  00000+0 -23708-4 0  9999
2 58748  43.0029 251.7935 0001301 260.3605  99.7091 15.02536635 69759
STARLINK-31160          
1 58749U 24005X   25096.77308065 -.00000980  00000+0 -57476-4 0  9993
2 58749  43.0023 252.0114 0001613 257.9485 102.1177 15.02539334 69743
STARLINK-31179          
1 58750U 24005Y   25096.90937560  .00000516  00000+0  53267-4 0  9995
2 58750  43.0027 251.3801 0001046 258.4846 101.5879 15.02536615 69764
STARLINK-31127          
1 58765U 24011A   25097.21214238 -.00003786  00000+0 -24519-3 0  9994
2 58765  53.1600 119.8132 0001500  95.5548 264.5613 15.04931416 68875
